COSMOS 2588             
1 64095U 25109A   26068.81179522  .00009169  00000+0  32611-3 0  9998
2 64095  72.9704  73.5401 0005019 308.6780  51.3966 15.29122656 44425
STARLINK-35620          
1 66474U 25262U   26068.00596273  .00032410  00000+0  11812-2 0  9992
2 66474  43.0018 299.8720 0001905 260.8885  99.1751 15.27603895 18809
