[{"OBJECT_NAME":"COSMOS 2588","OBJECT_ID":"2025-109A","EPOCH":"2026-03-09T19:28:59.107008","MEAN_MOTION":15.29122656,"ECCENTRICITY":0.0005019,"INCLINATION":72.9704,"RA_OF_ASC_NODE":73.5401,"ARG_OF_PERICENTER":308.678,"MEAN_ANOMALY":51.3966,"EPHEMERIS_TYPE":0,"CLASSIFICATION_TYPE":"U","NORAD_CAT_ID":64095,"ELEMENT_SET_NO":999,"REV_AT_EPOCH":4442,"BSTAR":0.00032611,"MEAN_MOTION_DOT":9.169e-5,"MEAN_MOTION_DDOT":0},{"OBJECT_NAME":"STARLINK-35620","OBJECT_ID":"2025-262U","EPOCH":"2026-03-09T00:08:35.179872","MEAN_MOTION":15.27603895,"ECCENTRICITY":0.00019058,"INCLINATION":43.0018,"RA_OF_ASC_NODE":299.872,"ARG_OF_PERICENTER":260.8885,"MEAN_ANOMALY":99.1751,"EPHEMERIS_TYPE":0,"CLASSIFICATION_TYPE":"U","NORAD_CAT_ID":66474,"ELEMENT_SET_NO":999,"REV_AT_EPOCH":1880,"BSTAR":0.0011812188,"MEAN_MOTION_DOT":0.0003241,"MEAN_MOTION_DDOT":0}]
